{
  "type": "FeatureCollection",
  "features": [
    {
      "type": "Feature",
      "properties": {
        "norad_id": 30218,
        "name": "FENGYUN 1C DEB",
        "group": "fengyun-1c-debris",
        "lat": 72.5875756109783,
        "lon": -76.8077103618852,
        "alt_km": 835.8238111849569,
        "timestamp": "2025-12-09T14:52:26.436566+00:00",
        "meta_object_name": "FENGYUN 1C DEB",
        "meta_object_id": "1999-025WB",
        "meta_epoch": "2025-12-08T04:54:15.668928",
        "meta_mean_motion": 14.28715519,
        "meta_eccentricity": 0.0070547,
        "meta_inclination": 98.9848,
        "meta_ra_of_asc_node": 71.4383,
        "meta_arg_of_pericenter": 267.0889,
        "meta_mean_anomaly": 122.254,
        "meta_ephemeris_type": 0,
        "meta_classification_type": "U",
        "meta_norad_cat_id": 30218,
        "meta_element_set_no": 999,
        "meta_rev_at_epoch": 97044,
        "meta_bstar": 0.0033660889,
        "meta_mean_motion_dot": 8.66e-05,
        "meta_mean_motion_ddot": 0,
        "tle_line1": "1 30218U 99025WB  25342.20434802  .00008660  00000+0  33661-2 0  9998",
        "tle_line2": "2 30218  98.9848  71.4383 0070547 267.0889 122.2540 14.28715519970444"
      },
      "geometry": {
        "type": "Point",
        "coordinates": [
          -76.8077103618852,
          72.5875756109783
        ]
      }
    },
    {
      "type": "Feature",
      "properties": {
        "norad_id": 30221,
        "name": "FENGYUN 1C DEB",
        "group": "fengyun-1c-debris",
        "lat": -6.830774361248719,
        "lon": -109.97101485106963,
        "alt_km": 817.1979122645043,
        "timestamp": "2025-12-09T14:52:26.436576+00:00",
        "meta_object_name": "FENGYUN 1C DEB",
        "meta_object_id": "1999-025WE",
        "meta_epoch": "2025-12-09T04:03:30.807648",
        "meta_mean_motion": 14.45802719,
        "meta_eccentricity": 0.01456158,
        "meta_inclination": 98.9566,
        "meta_ra_of_asc_node": 70.6358,
        "meta_arg_of_pericenter": 51.9922,
        "meta_mean_anomaly": 309.4312,
        "meta_ephemeris_type": 0,
        "meta_classification_type": "U",
        "meta_norad_cat_id": 30221,
        "meta_element_set_no": 999,
        "meta_rev_at_epoch": 99349,
        "meta_bstar": 0.00031182557,
        "meta_mean_motion_dot": 1.206e-05,
        "meta_mean_motion_ddot": 0,
        "tle_line1": "1 30221U 99025WE  25343.16910657  .00001206  00000+0  31183-3 0  9992",
        "tle_line2": "2 30221  98.9566  70.6358 0145615  51.9922 309.4312 14.45802719993499"
      },
      "geometry": {
        "type": "Point",
        "coordinates": [
          -109.97101485106963,
          -6.830774361248719
        ]
      }
    },
    {
      "type": "Feature",
      "properties": {
        "norad_id": 30222,
        "name": "FENGYUN 1C DEB",
        "group": "fengyun-1c-debris",
        "lat": -81.14849330077774,
        "lon": 108.83535753549889,
        "alt_km": 906.9562821494019,
        "timestamp": "2025-12-09T14:52:26.436587+00:00",
        "meta_object_name": "FENGYUN 1C DEB",
        "meta_object_id": "1999-025WF",
        "meta_epoch": "2025-12-09T01:52:49.222272",
        "meta_mean_motion": 14.04074787,
        "meta_eccentricity": 0.0038217,
        "meta_inclination": 98.842,
        "meta_ra_of_asc_node": 16.5624,
        "meta_arg_of_pericenter": 47.2596,
        "meta_mean_anomaly": 7.6762,
        "meta_ephemeris_type": 0,
        "meta_classification_type": "U",
        "meta_norad_cat_id": 30222,
        "meta_element_set_no": 999,
        "meta_rev_at_epoch": 96787,
        "meta_bstar": -2.726794e-06,
        "meta_mean_motion_dot": -4.7e-07,
        "meta_mean_motion_ddot": 0,
        "tle_line1": "1 30222U 99025WF  25343.07834748 -.00000047  00000+0 -27268-5 0  9994",
        "tle_line2": "2 30222  98.8420  16.5624 0038217  47.2596   7.6762 14.04074787967877"
      },
      "geometry": {
        "type": "Point",
        "coordinates": [
          108.83535753549889,
          -81.14849330077774
        ]
      }
    },
    {
      "type": "Feature",
      "properties": {
        "norad_id": 30224,
        "name": "FENGYUN 1C DEB",
        "group": "fengyun-1c-debris",
        "lat": -68.28007944491203,
        "lon": 177.49523020692018,
        "alt_km": 951.4673240644643,
        "timestamp": "2025-12-09T14:52:26.436597+00:00",
        "meta_object_name": "FENGYUN 1C DEB",
        "meta_object_id": "1999-025WH",
        "meta_epoch": "2025-12-09T01:49:57.131616",
        "meta_mean_motion": 13.8986131,
        "meta_eccentricity": 0.01112813,
        "meta_inclination": 99.4844,
        "meta_ra_of_asc_node": 21.7538,
        "meta_arg_of_pericenter": 353.1431,
        "meta_mean_anomaly": 61.0162,
        "meta_ephemeris_type": 0,
        "meta_classification_type": "U",
        "meta_norad_cat_id": 30224,
        "meta_element_set_no": 999,
        "meta_rev_at_epoch": 95690,
        "meta_bstar": 0.00045318237,
        "meta_mean_motion_dot": 5.39e-06,
        "meta_mean_motion_ddot": 0,
        "tle_line1": "1 30224U 99025WH  25343.07635569  .00000539  00000+0  45318-3 0  9994",
        "tle_line2": "2 30224  99.4844  21.7538 0111281 353.1431  61.0162 13.89861310956906"
      },
      "geometry": {
        "type": "Point",
        "coordinates": [
          177.49523020692018,
          -68.28007944491203
        ]
      }
    },
    {
      "type": "Feature",
      "properties": {
        "norad_id": 30225,
        "name": "FENGYUN 1C DEB",
        "group": "fengyun-1c-debris",
        "lat": 41.4714024358787,
        "lon": -161.77704726036873,
        "alt_km": 784.9760122895013,
        "timestamp": "2025-12-09T14:52:26.436607+00:00",
        "meta_object_name": "FENGYUN 1C DEB",
        "meta_object_id": "1999-025WJ",
        "meta_epoch": "2025-12-09T00:57:09.866592",
        "meta_mean_motion": 14.15180121,
        "meta_eccentricity": 0.01005064,
        "meta_inclination": 98.6601,
        "meta_ra_of_asc_node": 9.9184,
        "meta_arg_of_pericenter": 96.4305,
        "meta_mean_anomaly": 327.1409,
        "meta_ephemeris_type": 0,
        "meta_classification_type": "U",
        "meta_norad_cat_id": 30225,
        "meta_element_set_no": 999,
        "meta_rev_at_epoch": 97484,
        "meta_bstar": 0.00022097735,
        "meta_mean_motion_dot": 4.09e-06,
        "meta_mean_motion_ddot": 0,
        "tle_line1": "1 30225U 99025WJ  25343.03969753  .00000409  00000+0  22098-3 0  9992",
        "tle_line2": "2 30225  98.6601   9.9184 0100506  96.4305 327.1409 14.15180121974846"
      },
      "geometry": {
        "type": "Point",
        "coordinates": [
          -161.77704726036873,
          41.4714024358787
        ]
      }
    },
    {
      "type": "Feature",
      "properties": {
        "norad_id": 30229,
        "name": "FENGYUN 1C DEB",
        "group": "fengyun-1c-debris",
        "lat": -46.2520994039049,
        "lon": -146.63821285352878,
        "alt_km": 725.077496885785,
        "timestamp": "2025-12-09T14:52:26.436618+00:00",
        "meta_object_name": "FENGYUN 1C DEB",
        "meta_object_id": "1999-025WN",
        "meta_epoch": "2025-12-09T02:35:38.950944",
        "meta_mean_motion": 14.60442405,
        "meta_eccentricity": 0.00377188,
        "meta_inclination": 99.0621,
        "meta_ra_of_asc_node": 42.4006,
        "meta_arg_of_pericenter": 51.8382,
        "meta_mean_anomaly": 6.5076,
        "meta_ephemeris_type": 0,
        "meta_classification_type": "U",
        "meta_norad_cat_id": 30229,
        "meta_element_set_no": 999,
        "meta_rev_at_epoch": 98873,
        "meta_bstar": 0.0020789002,
        "meta_mean_motion_dot": 0.00010131,
        "meta_mean_motion_ddot": 0,
        "tle_line1": "1 30229U 99025WN  25343.10808971  .00010131  00000+0  20789-2 0  9995",
        "tle_line2": "2 30229  99.0621  42.4006 0037718  51.8382   6.5076 14.60442405988733"
      },
      "geometry": {
        "type": "Point",
        "coordinates": [
          -146.63821285352878,
          -46.2520994039049
        ]
      }
    },
    {
      "type": "Feature",
      "properties": {
        "norad_id": 30231,
        "name": "FENGYUN 1C DEB",
        "group": "fengyun-1c-debris",
        "lat": -76.98246449879406,
        "lon": 70.5382857031316,
        "alt_km": 904.4879791294825,
        "timestamp": "2025-12-09T14:52:26.436628+00:00",
        "meta_object_name": "FENGYUN 1C DEB",
        "meta_object_id": "1999-025WQ",
        "meta_epoch": "2025-12-09T01:55:27.274656",
        "meta_mean_motion": 14.11630423,
        "meta_eccentricity": 0.01286594,
        "meta_inclination": 98.8054,
        "meta_ra_of_asc_node": 27.9066,
        "meta_arg_of_pericenter": 39.6107,
        "meta_mean_anomaly": 20.8186,
        "meta_ephemeris_type": 0,
        "meta_classification_type": "U",
        "meta_norad_cat_id": 30231,
        "meta_element_set_no": 999,
        "meta_rev_at_epoch": 96968,
        "meta_bstar": 0.00075851317,
        "meta_mean_motion_dot": 1.448e-05,
        "meta_mean_motion_ddot": 0,
        "tle_line1": "1 30231U 99025WQ  25343.08017679  .00001448  00000+0  75851-3 0  9994",
        "tle_line2": "2 30231  98.8054  27.9066 0128659  39.6107  20.8186 14.11630423969680"
      },
      "geometry": {
        "type": "Point",
        "coordinates": [
          70.5382857031316,
          -76.98246449879406
        ]
      }
    }
  ]
}